[{"OBJECT_NAME":"STARLINK-2408","OBJECT_ID":"2021-018AN","EPOCH":"2026-03-09T17:35:33.480960","MEAN_MOTION":15.06395389,"ECCENTRICITY":0.00014347,"INCLINATION":53.0554,"RA_OF_ASC_NODE":251.4081,"ARG_OF_PERICENTER":109.3235,"MEAN_ANOMALY":250.791,"EPHEMERIS_TYPE":0,"CLASSIFICATION_TYPE":"U","NORAD_CAT_ID":47823,"ELEMENT_SET_NO":999,"REV_AT_EPOCH":27660,"BSTAR":-0.00010803348,"MEAN_MOTION_DOT":-1.89e-5,"MEAN_MOTION_DDOT":0},{"OBJECT_NAME":"COSMOS 2251 DEB","OBJECT_ID":"1993-036GR","EPOCH":"2026-03-09T03:51:30.155616","MEAN_MOTION":15.03624382,"ECCENTRICITY":0.001162,"INCLINATION":74.0519,"RA_OF_ASC_NODE":328.1155,"ARG_OF_PERICENTER":228.8449,"MEAN_ANOMALY":281.5146,"EPHEMERIS_TYPE":0,"CLASSIFICATION_TYPE":"U","NORAD_CAT_ID":34006,"ELEMENT_SET_NO":999,"REV_AT_EPOCH":89963,"BSTAR":0.0037151817,"MEAN_MOTION_DOT":0.00051242,"MEAN_MOTION_DDOT":0}]
